{
  "type": "FeatureCollection",
  "features": [
    {
      "type": "Feature",
      "properties": {
        "norad_id": 66842,
        "name": "STARLINK-35769",
        "group": "last-30-days",
        "lat": 33.89195233203781,
        "lon": 173.53339817690772,
        "alt_km": 407.7226202838665,
        "timestamp": "2025-12-26T23:26:40.921956+00:00",
        "meta_object_name": "STARLINK-35769",
        "meta_object_id": "2025-280X",
        "meta_epoch": "2025-12-26T18:38:58.668288",
        "meta_mean_motion": 15.52566066,
        "meta_eccentricity": 0.0003311,
        "meta_inclination": 70.0008,
        "meta_ra_of_asc_node": 159.9182,
        "meta_arg_of_pericenter": 271.5525,
        "meta_mean_anomaly": 88.5282,
        "meta_ephemeris_type": 0,
        "meta_classification_type": "U",
        "meta_norad_cat_id": 66842,
        "meta_element_set_no": 999,
        "meta_rev_at_epoch": 511,
        "meta_bstar": 0.001685,
        "meta_mean_motion_dot": 0.00105053,
        "meta_mean_motion_ddot": 0,
        "tle_line1": "1 66842U 25280X   25360.77706792  .00105053  00000+0  16850-2 0  9999",
        "tle_line2": "2 66842  70.0008 159.9182 0003311 271.5525  88.5282 15.52566066  5115"
      },
      "geometry": {
        "type": "Point",
        "coordinates": [
          173.53339817690772,
          33.89195233203781
        ]
      }
    },
    {
      "type": "Feature",
      "properties": {
        "norad_id": 66843,
        "name": "STARLINK-35997",
        "group": "last-30-days",
        "lat": 37.37542058560361,
        "lon": 175.51966580173024,
        "alt_km": 407.33709062397884,
        "timestamp": "2025-12-26T23:26:40.921966+00:00",
        "meta_object_name": "STARLINK-35997",
        "meta_object_id": "2025-280Y",
        "meta_epoch": "2025-12-26T18:37:59.376288",
        "meta_mean_motion": 15.52568446,
        "meta_eccentricity": 0.0003579,
        "meta_inclination": 70.0009,
        "meta_ra_of_asc_node": 159.9149,
        "meta_arg_of_pericenter": 273.057,
        "meta_mean_anomaly": 87.0207,
        "meta_ephemeris_type": 0,
        "meta_classification_type": "U",
        "meta_norad_cat_id": 66843,
        "meta_element_set_no": 999,
        "meta_rev_at_epoch": 511,
        "meta_bstar": 0.0017899,
        "meta_mean_motion_dot": 0.00111709,
        "meta_mean_motion_ddot": 0,
        "tle_line1": "1 66843U 25280Y   25360.77638167  .00111709  00000+0  17899-2 0  9999",
        "tle_line2": "2 66843  70.0009 159.9149 0003579 273.0570  87.0207 15.52568446  5118"
      },
      "geometry": {
        "type": "Point",
        "coordinates": [
          175.51966580173024,
          37.37542058560361
        ]
      }
    },
    {
      "type": "Feature",
      "properties": {
        "norad_id": 66844,
        "name": "STARLINK-36073",
        "group": "last-30-days",
        "lat": 35.62152798369654,
        "lon": 174.49573413335625,
        "alt_km": 407.5636707132817,
        "timestamp": "2025-12-26T23:26:40.921976+00:00",
        "meta_object_name": "STARLINK-36073",
        "meta_object_id": "2025-280Z",
        "meta_epoch": "2025-12-26T08:00:01.000224",
        "meta_mean_motion": 15.52420843,
        "meta_eccentricity": 0.0003423,
        "meta_inclination": 70.0004,
        "meta_ra_of_asc_node": 161.1302,
        "meta_arg_of_pericenter": 270.9014,
        "meta_mean_anomaly": 131.8672,
        "meta_ephemeris_type": 0,
        "meta_classification_type": "U",
        "meta_norad_cat_id": 66844,
        "meta_element_set_no": 999,
        "meta_rev_at_epoch": 508,
        "meta_bstar": 0.0025125,
        "meta_mean_motion_dot": 0.00156941,
        "meta_mean_motion_ddot": 0,
        "tle_line1": "1 66844U 25280Z   25360.33334491  .00156941  00000+0  25125-2 0  9993",
        "tle_line2": "2 66844  70.0004 161.1302 0003423 270.9014 131.8672 15.52420843  5085"
      },
      "geometry": {
        "type": "Point",
        "coordinates": [
          174.49573413335625,
          35.62152798369654
        ]
      }
    },
    {
      "type": "Feature",
      "properties": {
        "norad_id": 66845,
        "name": "STARLINK-36068",
        "group": "last-30-days",
        "lat": 42.50177434622692,
        "lon": 178.8565864787072,
        "alt_km": 406.79737010666486,
        "timestamp": "2025-12-26T23:26:40.921986+00:00",
        "meta_object_name": "STARLINK-36068",
        "meta_object_id": "2025-280AA",
        "meta_epoch": "2025-12-26T17:03:43.852608",
        "meta_mean_motion": 15.52542681,
        "meta_eccentricity": 0.0003482,
        "meta_inclination": 70.0011,
        "meta_ra_of_asc_node": 160.0877,
        "meta_arg_of_pericenter": 272.5391,
        "meta_mean_anomaly": 87.5397,
        "meta_ephemeris_type": 0,
        "meta_classification_type": "U",
        "meta_norad_cat_id": 66845,
        "meta_element_set_no": 999,
        "meta_rev_at_epoch": 510,
        "meta_bstar": 0.0010721,
        "meta_mean_motion_dot": 0.00066397,
        "meta_mean_motion_ddot": 0,
        "tle_line1": "1 66845U 25280AA  25360.71092422  .00066397  00000+0  10721-2 0  9992",
        "tle_line2": "2 66845  70.0011 160.0877 0003482 272.5391  87.5397 15.52542681  5109"
      },
      "geometry": {
        "type": "Point",
        "coordinates": [
          178.8565864787072,
          42.50177434622692
        ]
      }
    },
    {
      "type": "Feature",
      "properties": {
        "norad_id": 66846,
        "name": "STARLINK-36055",
        "group": "last-30-days",
        "lat": 39.137397476912255,
        "lon": 176.60607314049074,
        "alt_km": 407.1849902138192,
        "timestamp": "2025-12-26T23:26:40.921996+00:00",
        "meta_object_name": "STARLINK-36055",
        "meta_object_id": "2025-280AB",
        "meta_epoch": "2025-12-25T17:53:01.855968",
        "meta_mean_motion": 15.52504965,
        "meta_eccentricity": 0.00033929,
        "meta_inclination": 70.001,
        "meta_ra_of_asc_node": 162.7379,
        "meta_arg_of_pericenter": 270.6917,
        "meta_mean_anomaly": 89.3881,
        "meta_ephemeris_type": 0,
        "meta_classification_type": "U",
        "meta_norad_cat_id": 66846,
        "meta_element_set_no": 999,
        "meta_rev_at_epoch": 495,
        "meta_bstar": 0.00066927244,
        "meta_mean_motion_dot": 0.000412,
        "meta_mean_motion_ddot": 0,
        "tle_line1": "1 66846U 25280AB  25359.74516037  .00041200  00000+0  66927-3 0  9993",
        "tle_line2": "2 66846  70.0010 162.7379 0003392 270.6917  89.3881 15.52504965  4951"
      },
      "geometry": {
        "type": "Point",
        "coordinates": [
          176.60607314049074,
          39.137397476912255
        ]
      }
    },
    {
      "type": "Feature",
      "properties": {
        "norad_id": 66847,
        "name": "STARLINK-36061",
        "group": "last-30-days",
        "lat": 40.82127115834016,
        "lon": 177.6993765168426,
        "alt_km": 406.6980335818107,
        "timestamp": "2025-12-26T23:26:40.922004+00:00",
        "meta_object_name": "STARLINK-36061",
        "meta_object_id": "2025-280AC",
        "meta_epoch": "2025-12-26T18:37:00.163776",
        "meta_mean_motion": 15.52572156,
        "meta_eccentricity": 0.0003422,
        "meta_inclination": 70.0009,
        "meta_ra_of_asc_node": 159.9125,
        "meta_arg_of_pericenter": 277.3019,
        "meta_mean_anomaly": 82.7779,
        "meta_ephemeris_type": 0,
        "meta_classification_type": "U",
        "meta_norad_cat_id": 66847,
        "meta_element_set_no": 999,
        "meta_rev_at_epoch": 511,
        "meta_bstar": 0.0019446,
        "meta_mean_motion_dot": 0.00121545,
        "meta_mean_motion_ddot": 0,
        "tle_line1": "1 66847U 25280AC  25360.77569634  .00121545  00000+0  19446-2 0  9994",
        "tle_line2": "2 66847  70.0009 159.9125 0003422 277.3019  82.7779 15.52572156  5117"
      },
      "geometry": {
        "type": "Point",
        "coordinates": [
          177.6993765168426,
          40.82127115834016
        ]
      }
    },
    {
      "type": "Feature",
      "properties": {
        "norad_id": 66848,
        "name": "STARLINK-36091",
        "group": "last-30-days",
        "lat": -4.196781840354063,
        "lon": -139.08233060283465,
        "alt_km": 415.1536714974982,
        "timestamp": "2025-12-26T23:26:40.922013+00:00",
        "meta_object_name": "STARLINK-36091",
        "meta_object_id": "2025-281A",
        "meta_epoch": "2025-12-26T18:00:02.998944",
        "meta_mean_motion": 15.50636597,
        "meta_eccentricity": 0.0001127,
        "meta_inclination": 43.0004,
        "meta_ra_of_asc_node": 37.7284,
        "meta_arg_of_pericenter": 260.9697,
        "meta_mean_anomaly": 97.4053,
        "meta_ephemeris_type": 0,
        "meta_classification_type": "U",
        "meta_norad_cat_id": 66848,
        "meta_element_set_no": 999,
        "meta_rev_at_epoch": 363,
        "meta_bstar": -0.0021197,
        "meta_mean_motion_dot": -0.00123006,
        "meta_mean_motion_ddot": 0,
        "tle_line1": "1 66848U 25281A   25360.75003471 -.00123006  00000+0 -21197-2 0  9998",
        "tle_line2": "2 66848  43.0004  37.7284 0001127 260.9697  97.4053 15.50636597  3633"
      },
      "geometry": {
        "type": "Point",
        "coordinates": [
          -139.08233060283465,
          -4.196781840354063
        ]
      }
    }
  ]
}